{
  "norad_id": 67319,
  "name": "STARLINK-36470",
  "history": [
    {
      "epoch": "2026-03-28T16:41:09.602592",
      "apogee_km": 484.11487704247884,
      "perigee_km": 481.8688179029705,
      "latitude_deg": 42.31260195916467,
      "longitude_deg": -101.35599712003022,
      "semi_major_axis_km": 6861.128847472724,
      "eccentricity": 0.00016368,
      "inclination_deg": 43.0023,
      "raan_deg": 218.0949,
      "arg_perigee_deg": 282.1444,
      "mean_anomaly_deg": 77.9224,
      "mean_motion_rev_day": 15.27599119
    }
  ]
}